[{"OBJECT_NAME":"ICESAT-2","OBJECT_ID":"2018-070A","EPOCH":"2026-03-09T22:54:12.225888","MEAN_MOTION":15.28328617,"ECCENTRICITY":0.00038245,"INCLINATION":91.9993,"RA_OF_ASC_NODE":264.2397,"ARG_OF_PERICENTER":123.8941,"MEAN_ANOMALY":236.2673,"EPHEMERIS_TYPE":0,"CLASSIFICATION_TYPE":"U","NORAD_CAT_ID":43613,"ELEMENT_SET_NO":999,"REV_AT_EPOCH":41730,"BSTAR":0.00014022643,"MEAN_MOTION_DOT":3.87e-5,"MEAN_MOTION_DDOT":0},{"OBJECT_NAME":"STARLINK-31689","OBJECT_ID":"2024-076D","EPOCH":"2026-03-09T04:24:01.682784","MEAN_MOTION":15.275769,"ECCENTRICITY":6.023e-5,"INCLINATION":42.9995,"RA_OF_ASC_NODE":8.5445,"ARG_OF_PERICENTER":278.6438,"MEAN_ANOMALY":81.4346,"EPHEMERIS_TYPE":0,"CLASSIFICATION_TYPE":"U","NORAD_CAT_ID":59567,"ELEMENT_SET_NO":999,"REV_AT_EPOCH":10646,"BSTAR":-6.5234855e-5,"MEAN_MOTION_DOT":-2.056e-5,"MEAN_MOTION_DDOT":0}]
